{
    "links": {
        "self": "http://www.neowsapp.com/rest/v1/neo/3788892?api_key=iIulBulltgU6a56xZRHN4H3l9WmuAYTsLGpBGhQ2"
    },
    "id": "3788892",
    "neo_reference_id": "3788892",
    "name": "(2017 VA)",
    "designation": "2017 VA",
    "nasa_jpl_url": "http://ssd.jpl.nasa.gov/sbdb.cgi?sstr=3788892",
    "absolute_magnitude_h": 24.2,
    "estimated_diameter": {
        "kilometers": {
            "estimated_diameter_min": 0.0384197891,
            "estimated_diameter_max": 0.0859092601
        },
        "meters": {
            "estimated_diameter_min": 38.4197891064,
            "estimated_diameter_max": 85.9092601232
        },
        "miles": {
            "estimated_diameter_min": 0.0238729428,
            "estimated_diameter_max": 0.0533815229
        },
        "feet": {
            "estimated_diameter_min": 126.0491808919,
            "estimated_diameter_max": 281.8545369825
        }
    },
    "is_potentially_hazardous_asteroid": false,
    "close_approach_data": [
        {
            "close_approach_date": "2017-10-28",
            "close_approach_date_full": "2017-Oct-28 15:01",
            "epoch_date_close_approach": 1509202860000,
            "relative_velocity": {
                "kilometers_per_second": "11.5726334671",
                "kilometers_per_hour": "41661.4804817101",
                "miles_per_hour": "25886.8238026493"
            },
            "miss_distance": {
                "astronomical": "0.0095211866",
                "lunar": "3.7037415874",
                "kilometers": "1424349.235232542",
                "miles": "885049.5744793996"
            },
            "orbiting_body": "Moon"
        },
        {
            "close_approach_date": "2017-10-28",
            "close_approach_date_full": "2017-Oct-28 19:37",
            "epoch_date_close_approach": 1509219420000,
            "relative_velocity": {
                "kilometers_per_second": "12.4313929767",
                "kilometers_per_hour": "44753.0147159854",
                "miles_per_hour": "27807.7829494966"
            },
            "miss_distance": {
                "astronomical": "0.007461557",
                "lunar": "2.902545673",
                "kilometers": "1116233.03408359",
                "miles": "693595.044949942"
            },
            "orbiting_body": "Earth"
        }
    ],
    "orbital_data": {
        "orbit_id": "6",
        "orbit_determination_date": "2017-11-22 06:26:48",
        "first_observation_date": "2017-11-01",
        "last_observation_date": "2017-11-21",
        "data_arc_in_days": 20,
        "observations_used": 52,
        "orbit_uncertainty": "7",
        "minimum_orbit_intersection": ".00488657",
        "jupiter_tisserand_invariant": "3.289",
        "epoch_osculation": "2459000.5",
        "eccentricity": ".6152944298694754",
        "semi_major_axis": "2.324474846610864",
        "inclination": "4.714621519876156",
        "ascending_node_longitude": "32.96224873896882",
        "orbital_period": "1294.451262345688",
        "perihelion_distance": ".8942384211194965",
        "perihelion_argument": "321.281935389859",
        "aphelion_distance": "3.754711272102233",
        "perihelion_time": "2459319.755129212701",
        "mean_anomaly": "271.211916694103",
        "mean_motion": ".2781101231634172",
        "equinox": "J2000",
        "orbit_class": {
            "orbit_class_type": "APO",
            "orbit_class_description": "Near-Earth asteroid orbits which cross the Earth’s orbit similar to that of 1862 Apollo",
            "orbit_class_range": "a (semi-major axis) > 1.0 AU; q (perihelion) < 1.017 AU"
        }
    },
    "is_sentry_object": false
}